[{"OBJECT_NAME":"ONEWEB-0069","OBJECT_ID":"2020-020G","EPOCH":"2026-03-09T22:52:41.875680","MEAN_MOTION":13.11418777,"ECCENTRICITY":0.00017629,"INCLINATION":87.8867,"RA_OF_ASC_NODE":40.7906,"ARG_OF_PERICENTER":83.8955,"MEAN_ANOMALY":276.2374,"EPHEMERIS_TYPE":0,"CLASSIFICATION_TYPE":"U","NORAD_CAT_ID":45430,"ELEMENT_SET_NO":999,"REV_AT_EPOCH":28966,"BSTAR":-0.0011212092,"MEAN_MOTION_DOT":-3.85e-6,"MEAN_MOTION_DDOT":0},{"OBJECT_NAME":"FENGYUN 1C DEB","OBJECT_ID":"1999-025AJQ","EPOCH":"2026-03-09T11:05:29.022144","MEAN_MOTION":13.50021337,"ECCENTRICITY":0.03042863,"INCLINATION":99.5368,"RA_OF_ASC_NODE":152.2216,"ARG_OF_PERICENTER":48.4008,"MEAN_ANOMALY":314.2779,"EPHEMERIS_TYPE":0,"CLASSIFICATION_TYPE":"U","NORAD_CAT_ID":30526,"ELEMENT_SET_NO":999,"REV_AT_EPOCH":93828,"BSTAR":0.0002756743,"MEAN_MOTION_DOT":1.93e-6,"MEAN_MOTION_DDOT":0}]
